[{"OBJECT_NAME":"STARLINK-32595","OBJECT_ID":"2024-216F","EPOCH":"2026-03-09T23:00:42.687360","MEAN_MOTION":15.27582743,"ECCENTRICITY":0.00016439,"INCLINATION":42.9992,"RA_OF_ASC_NODE":261.9959,"ARG_OF_PERICENTER":270.9756,"MEAN_ANOMALY":89.0908,"EPHEMERIS_TYPE":0,"CLASSIFICATION_TYPE":"U","NORAD_CAT_ID":62037,"ELEMENT_SET_NO":999,"REV_AT_EPOCH":7384,"BSTAR":0.00073115706,"MEAN_MOTION_DOT":0.00019914,"MEAN_MOTION_DDOT":0},{"OBJECT_NAME":"SL-3 R\/B","OBJECT_ID":"1983-003B","EPOCH":"2026-03-09T21:31:00.897888","MEAN_MOTION":15.34640469,"ECCENTRICITY":0.00285789,"INCLINATION":81.155,"RA_OF_ASC_NODE":261.9078,"ARG_OF_PERICENTER":155.4571,"MEAN_ANOMALY":204.8036,"EPHEMERIS_TYPE":0,"CLASSIFICATION_TYPE":"U","NORAD_CAT_ID":13771,"ELEMENT_SET_NO":999,"REV_AT_EPOCH":35642,"BSTAR":0.00033440366,"MEAN_MOTION_DOT":0.00011405,"MEAN_MOTION_DDOT":0}]
